OBJECT_NAME,OBJECT_ID,EPOCH,MEAN_MOTION,ECCENTRICITY,INCLINATION,RA_OF_ASC_NODE,ARG_OF_PERICENTER,MEAN_ANOMALY,EPHEMERIS_TYPE,CLASSIFICATION_TYPE,NORAD_CAT_ID,ELEMENT_SET_NO,REV_AT_EPOCH,BSTAR,MEAN_MOTION_DOT,MEAN_MOTION_DDOT
SL-14 R/B,1990-018B,2026-07-13T19:29:14.477568,14.82233550,.0017135,82.5218,105.2232,41.1240,319.1262,0,U,20511,999,94126,.22839E-4,.206E-5,0
HST,1990-037B,2026-07-13T11:30:45.235872,15.31050347,.00022052,28.4725,260.8360,88.3061,271.7788,0,U,20580,999,79260,.11486938E-3,.3777E-4,0
SL-16 R/B,1990-046B,2026-07-13T21:09:24.930720,14.15024033,.0012418,70.9985,32.8831,116.6227,243.6169,0,U,20625,999,86624,.12828E-3,.201E-5,0
COSMOS 2084,1990-055A,2026-07-13T13:14:28.061952,15.06220237,.0007877,62.7885,266.0978,316.5514,43.4965,0,U,20663,999,95527,.74769E-4,.899E-5,0
SL-6 R/B(2),1990-055D,2026-07-13T09:03:41.548608,15.04083501,.00448749,62.7802,186.2468,8.7952,351.3923,0,U,20666,999,95709,.87842382E-4,.1038E-4,0
SL-8 R/B,1990-078B,2026-07-13T20:51:23.817024,14.93546818,.0343716,82.9033,137.5120,308.0514,49.0143,0,U,20775,999,82810,.31247E-3,.11029E-3,0
SL-8 R/B,1991-006B,2026-07-13T19:04:28.754400,13.77508973,.00235,82.9410,76.2383,44.2383,24.0687,0,U,21088,999,78143,.65535E-4,.81E-6,0
OKEAN-3,1991-039A,2026-07-13T14:14:59.485056,15.05428924,.0012276,82.5140,214.7714,260.7870,99.1968,0,U,21397,999,88397,.11507E-3,.1681E-4,0
COSMOS 2151,1991-042A,2026-07-13T20:49:54.552000,15.00511136,.0012088,82.4980,321.9316,0.0286,0.0937,0,U,21422,999,88211,.49134E-4,.647E-5,0
SL-14 R/B,1991-042B,2026-07-13T18:09:34.992000,14.81917564,.0016851,82.4933,101.9806,181.6219,178.4944,0,U,21423,999,87174,.19526E-4,.178E-5,0
ERS-1,1991-050A,2026-07-13T15:31:49.406304,14.39532285,.0031794,98.7796,215.9911,186.3506,173.7282,0,U,21574,999,83385,.62095E-4,.148E-5,0
ARIANE 40 R/B,1991-050F,2026-07-13T17:53:57.516576,14.42971426,.0004208,98.1864,242.1263,64.6538,295.5089,0,U,21610,999,83717,.50406E-4,.127E-5,0
INTERCOSMOS 25,1991-086A,2026-07-13T14:34:34.697856,12.12239460,.14845,82.6011,233.8219,205.3521,146.6949,0,U,21819,999,51194,.63446E-4,.333E-5,0
SL-8 R/B,1992-008B,2026-07-13T21:16:00.826752,13.75983559,.00356,82.9271,173.9365,140.1769,284.0132,0,U,21876,999,72677,.92905E-4,.106E-5,0
SL-8 R/B,1992-020B,2026-07-13T18:01:35.923872,13.75550269,.0028054,82.9280,60.1233,307.7381,122.0864,0,U,21938,999,71846,.29649E-5,.18E-6,0
USA 81,1992-023A,2026-07-13T16:19:50.772000,14.32404691,.0002061,85.0052,58.7133,65.4493,294.6915,0,U,21949,999,11282,.3348E-4,.11E-5,0
COSMOS 2219,1992-076A,2026-07-13T20:36:17.627040,14.14109137,.0018183,71.0613,114.3177,359.5082,0.6020,0,U,22219,999,73621,-.81944E-4,-.203E-5,0
SL-16 R/B,1992-076B,2026-07-13T15:43:08.760000,14.16876813,.0015026,71.0005,283.0261,264.0819,204.2139,0,U,22220,999,73967,.12812E-3,.209E-5,0
COSMOS 2221,1992-080A,2026-07-13T21:12:21.110688,14.96601807,.0015634,82.5045,158.1869,124.2045,236.0661,0,U,22236,999,79966,.7188E-4,.847E-5,0
SL-16 R/B,1992-093B,2026-07-13T21:14:07.067328,14.15466265,.0002331,71.0219,99.3462,138.1649,221.9653,0,U,22285,999,73101,-.86278E-4,-.216E-5,0
COSMOS 2228,1992-094A,2026-07-13T21:07:13.749600,14.97673229,.0016228,82.5188,116.4754,233.9459,126.0261,0,U,22286,999,79494,.76299E-4,.922E-5,0
SL-16 R/B,1993-016B,2026-07-13T17:25:56.601120,14.15312008,.0008904,71.0084,310.4657,140.6294,219.5478,0,U,22566,999,72000,.86815E-4,.122E-5,0
COSMOS 2242,1993-024A,2026-07-13T20:26:29.396832,14.96982543,.0014584,82.5198,146.0320,237.6079,122.3733,0,U,22626,999,79926,.75595E-4,.897E-5,0
SL-16 R/B,1993-059B,2026-07-13T19:35:32.280576,14.17249763,.0016576,70.9902,105.1485,10.5698,349.5770,0,U,22803,999,69740,-.82952E-4,-.216E-5,0
ARIANE 40 R/B,1993-061H,2026-07-13T19:26:10.074048,14.32918221,.0009484,98.4808,261.1122,270.2044,89.8053,0,U,22830,999,71216,.43609E-4,.76E-6,0
COSMOS 2278,1994-023A,2026-07-13T15:02:10.208256,14.14393250,.0009732,71.0525,271.6085,207.9939,152.0662,0,U,23087,999,66261,-.66601E-5,-.6E-6,0
SL-16 R/B,1994-023B,2026-07-13T21:34:53.324256,14.15024134,.0001431,70.9983,165.8333,132.9542,227.1701,0,U,23088,999,66394,.48336E-4,.46E-6,0
SL-16 R/B,1994-074B,2026-07-13T16:03:31.967136,14.79523568,.0007049,97.6987,220.2856,158.8699,317.5316,0,U,23343,999,70587,.33068E-4,.198E-5,0
SL-16 R/B,1994-077B,2026-07-13T19:57:29.753568,14.15574443,.000408,70.9823,87.1084,304.3402,55.7334,0,U,23405,999,63408,-.56535E-4,-.159E-5,0
ARIANE 40+ R/B,1995-021B,2026-07-13T19:39:02.415744,14.39847119,.0007863,98.4401,264.5076,120.0024,352.3221,0,U,23561,999,63739,.50799E-4,.116E-5,0
SL-16 R/B,1995-058B,2026-07-13T15:11:01.105152,14.15508286,.0014608,71.0211,275.8361,284.7733,75.1772,0,U,23705,999,58567,.66971E-4,.83E-6,0
