SL-14 R/B               
1 20511U 90018B   26194.81197312  .00000206  00000+0  22839-4 0  9996
2 20511  82.5218 105.2232 0017135  41.1240 319.1262 14.82233550941260
HST                     
1 20580U 90037B   26194.47969023  .00003777  00000+0  11487-3 0  9993
2 20580  28.4725 260.8360 0002205  88.3061 271.7788 15.31050347792608
SL-16 R/B               
1 20625U 90046B   26194.88153855  .00000201  00000+0  12828-3 0  9995
2 20625  70.9985  32.8831 0012418 116.6227 243.6169 14.15024033866241
COSMOS 2084             
1 20663U 90055A   26194.55171368  .00000899  00000+0  74769-4 0  9996
2 20663  62.7885 266.0978 0007877 316.5514  43.4965 15.06220237955274
SL-6 R/B(2)             
1 20666U 90055D   26194.37756422  .00001038  00000+0  87842-4 0  9991
2 20666  62.7802 186.2468 0044874   8.7952 351.3923 15.04083501957093
SL-8 R/B                
1 20775U 90078B   26194.86902566  .00011029  00000+0  31247-3 0  9991
2 20775  82.9033 137.5120 0343716 308.0514  49.0143 14.93546818828101
SL-8 R/B                
1 21088U 91006B   26194.79477725  .00000081  00000+0  65535-4 0  9991
2 21088  82.9410  76.2383 0023500  44.2383  24.0687 13.77508973781438
OKEAN-3                 
1 21397U 91039A   26194.59374404  .00001681  00000+0  11507-3 0  9994
2 21397  82.5140 214.7714 0012276 260.7870  99.1968 15.05428924883975
COSMOS 2151             
1 21422U 91042A   26194.86799250  .00000647  00000+0  49134-4 0  9996
2 21422  82.4980 321.9316 0012088   0.0286   0.0937 15.00511136882116
SL-14 R/B               
1 21423U 91042B   26194.75665500  .00000178  00000+0  19526-4 0  9996
2 21423  82.4933 101.9806 0016851 181.6219 178.4944 14.81917564871747
ERS-1                   
1 21574U 91050A   26194.64709961  .00000148  00000+0  62095-4 0  9996
2 21574  98.7796 215.9911 0031794 186.3506 173.7282 14.39532285833857
ARIANE 40 R/B           
1 21610U 91050F   26194.74580459  .00000127  00000+0  50406-4 0  9997
2 21610  98.1864 242.1263 0004208  64.6538 295.5089 14.42971426837178
INTERCOSMOS 25          
1 21819U 91086A   26194.60734604  .00000333  00000+0  63446-4 0  9992
2 21819  82.6011 233.8219 1484500 205.3521 146.6949 12.12239460511948
SL-8 R/B                
1 21876U 92008B   26194.88612068  .00000106  00000+0  92905-4 0  9999
2 21876  82.9271 173.9365 0035600 140.1769 284.0132 13.75983559726775
SL-8 R/B                
1 21938U 92020B   26194.75111023  .00000018  00000+0  29649-5 0  9991
2 21938  82.9280  60.1233 0028054 307.7381 122.0864 13.75550269718469
USA 81                  
1 21949U 92023A   26194.68044875  .00000110  00000+0  33480-4 0  9998
2 21949  85.0052  58.7133 0002061  65.4493 294.6915 14.32404691112828
COSMOS 2219             
1 22219U 92076A   26194.85853735 -.00000203  00000+0 -81944-4 0  9992
2 22219  71.0613 114.3177 0018183 359.5082   0.6020 14.14109137736211
SL-16 R/B               
1 22220U 92076B   26194.65496250  .00000209  00000+0  12812-3 0  9998
2 22220  71.0005 283.0261 0015026 264.0819 204.2139 14.16876813739677
COSMOS 2221             
1 22236U 92080A   26194.88357767  .00000847  00000+0  71880-4 0  9993
2 22236  82.5045 158.1869 0015634 124.2045 236.0661 14.96601807799669
SL-16 R/B               
1 22285U 92093B   26194.88480402 -.00000216  00000+0 -86278-4 0  9993
2 22285  71.0219  99.3462 0002331 138.1649 221.9653 14.15466265731015
COSMOS 2228             
1 22286U 92094A   26194.88002025  .00000922  00000+0  76299-4 0  9990
2 22286  82.5188 116.4754 0016228 233.9459 126.0261 14.97673229794947
SL-16 R/B               
1 22566U 93016B   26194.72634955  .00000122  00000+0  86815-4 0  9999
2 22566  71.0084 310.4657 0008904 140.6294 219.5478 14.15312008720006
COSMOS 2242             
1 22626U 93024A   26194.85172913  .00000897  00000+0  75595-4 0  9992
2 22626  82.5198 146.0320 0014584 237.6079 122.3733 14.96982543799260
SL-16 R/B               
1 22803U 93059B   26194.81634584 -.00000216  00000+0 -82952-4 0  9992
2 22803  70.9902 105.1485 0016576  10.5698 349.5770 14.17249763697407
ARIANE 40 R/B           
1 22830U 93061H   26194.80983882  .00000076  00000+0  43609-4 0  9990
2 22830  98.4808 261.1122 0009484 270.2044  89.8053 14.32918221712166
COSMOS 2278             
1 23087U 94023A   26194.62650704 -.00000060  00000+0 -66601-5 0  9991
2 23087  71.0525 271.6085 0009732 207.9939 152.0662 14.14393250662616
SL-16 R/B               
1 23088U 94023B   26194.89922829  .00000046  00000+0  48336-4 0  9997
2 23088  70.9983 165.8333 0001431 132.9542 227.1701 14.15024134663946
SL-16 R/B               
1 23343U 94074B   26194.66911999  .00000198  00000+0  33068-4 0  9992
2 23343  97.6987 220.2856 0007049 158.8699 317.5316 14.79523568705877
SL-16 R/B               
1 23405U 94077B   26194.83159437 -.00000159  00000+0 -56535-4 0  9997
2 23405  70.9823  87.1084 0004080 304.3402  55.7334 14.15574443634087
ARIANE 40+ R/B          
1 23561U 95021B   26194.81877796  .00000116  00000+0  50799-4 0  9990
2 23561  98.4401 264.5076 0007863 120.0024 352.3221 14.39847119637391
SL-16 R/B               
1 23705U 95058B   26194.63265168  .00000083  00000+0  66971-4 0  9996
2 23705  71.0211 275.8361 0014608 284.7733  75.1772 14.15508286585676
